ONEWEB-0228             
1 48780U 21045P   24280.74815056  .00000238  00000+0  59753-3 0  9995
2 48780  87.9118  22.2595 0001818 103.0597 257.0736 13.15548566163016
